OBJECT_NAME,OBJECT_ID,EPOCH,MEAN_MOTION,ECCENTRICITY,INCLINATION,RA_OF_ASC_NODE,ARG_OF_PERICENTER,MEAN_ANOMALY,EPHEMERIS_TYPE,CLASSIFICATION_TYPE,NORAD_CAT_ID,ELEMENT_SET_NO,REV_AT_EPOCH,BSTAR,MEAN_MOTION_DOT,MEAN_MOTION_DDOT
TIANPING 3B-02,2024-189C,2026-07-01T04:18:11.591712,15.01046649,.000232,97.5180,201.9756,79.7548,280.3938,0,U,61616,999,9254,.22554E-3,.2825E-4,0
YAOGAN-43 03A,2024-190A,2026-07-01T05:00:01.363968,15.23052283,.0003657,34.9906,109.5386,106.2062,253.9055,0,U,61617,999,9400,.29238E-3,.7025E-4,0
YAOGAN-43 03B,2024-190B,2026-07-01T05:01:46.953408,15.23058430,.0005976,34.9882,109.4232,116.2943,243.8386,0,U,61618,999,9400,.3793E-3,.9132E-4,0
YAOGAN-43 03C,2024-190C,2026-07-01T03:35:17.509344,15.23061903,.0004783,34.9955,110.2694,119.3690,240.7503,0,U,61619,999,9395,.10973E-3,.2613E-4,0
STARLINK-32302,2024-191A,2026-06-29T20:31:12.633312,15.27574568,.00013074,43.0009,240.7938,285.0299,75.0408,0,U,61621,999,9544,.11474861E-4,.54E-6,0
STARLINK-32364,2024-191B,2026-06-29T20:46:02.165376,15.27566845,.00015834,42.9967,240.8697,274.4385,85.6286,0,U,61622,999,9469,-.35823663E-4,-.1247E-4,0
STARLINK-32331,2024-191C,2026-06-30T12:45:23.242464,15.27569061,.00005758,42.9979,240.7412,277.9085,82.1701,0,U,61623,999,9475,.12053127E-4,.7E-6,0
STARLINK-32398,2024-191D,2026-06-30T12:44:14.393760,15.27571550,.00011097,43.0011,237.2669,281.4970,78.5757,0,U,61624,999,9479,.17239966E-4,.212E-5,0
STARLINK-32365,2024-191E,2026-06-30T13:50:37.465728,15.27647216,.00013427,42.9994,236.7519,250.2235,109.8472,0,U,61625,999,9480,-.63767263E-3,-.17804E-3,0
STARLINK-32333,2024-191F,2026-06-30T14:36:11.498688,15.27574880,.00016019,43.0023,240.4577,274.9098,85.1570,0,U,61626,999,9476,.9571254E-5,.1E-7,0
STARLINK-32399,2024-191G,2026-06-30T11:46:24.498048,15.27577090,.00011556,42.9979,230.0357,271.2231,88.8488,0,U,61627,999,9487,.12331463E-4,.77E-6,0
STARLINK-32421,2024-191H,2026-06-30T12:53:29.454144,15.27580697,.0001497,43.0050,237.3114,258.1965,101.8718,0,U,61628,999,9479,.72919778E-4,.1745E-4,0
STARLINK-32403,2024-191J,2026-07-01T04:20:14.709120,15.27576161,.000096,43.0006,233.5442,264.1848,95.8894,0,U,61629,999,9489,.16707E-4,.198E-5,0
STARLINK-32390,2024-191K,2026-06-30T13:04:35.120352,15.27574406,.00013769,43.0047,237.3724,270.4607,89.6087,0,U,61630,999,9479,-.6771041E-5,-.448E-5,0
STARLINK-32348,2024-191L,2026-06-29T21:09:22.302432,15.27577341,.0001211,43.0010,244.4596,268.9725,91.0988,0,U,61631,999,9465,.5790568E-5,-.103E-5,0
STARLINK-32455,2024-191M,2026-06-30T14:47:18.230208,15.27571209,.00011634,42.9989,240.5191,290.9724,69.1003,0,U,61632,999,9476,-.20908461E-4,-.837E-5,0
STARLINK-32396,2024-191N,2026-07-01T04:38:02.943168,15.27580640,.0001589,43.0015,237.1047,278.1780,81.8891,0,U,61633,999,9485,-.55748E-4,-.1796E-4,0
STARLINK-32355,2024-191P,2026-06-30T14:51:00.688608,15.27564454,.00010924,43.0028,240.5345,277.7631,82.3096,0,U,61634,999,9476,-.38362869E-4,-.1317E-4,0
STARLINK-32370,2024-191Q,2026-06-30T15:15:33.077664,15.27570925,.00015549,43.0002,236.3342,272.4933,87.5741,0,U,61635,999,9481,-.93852312E-4,-.2843E-4,0
STARLINK-32405,2024-191R,2026-06-30T13:22:23.697408,15.27575729,.00016293,43.0019,240.9335,286.9152,73.1521,0,U,61636,999,9475,.501327E-5,-.124E-5,0
STARLINK-32419,2024-191S,2026-06-30T12:59:01.979232,15.27573514,.00013241,43.0069,237.3403,268.1458,91.9242,0,U,61637,999,9479,.6991915E-5,-.7E-6,0
STARLINK-32320,2024-191T,2026-06-30T11:53:47.174496,15.27570147,.00016047,42.9985,241.3350,280.8824,79.1847,0,U,61638,999,9474,.3086199E-5,-.177E-5,0
STARLINK-32341,2024-191U,2026-06-30T12:47:56.617152,15.27566998,.00013529,43.0026,237.2832,275.1275,84.9422,0,U,61639,999,9479,-.20572779E-4,-.828E-5,0
STARLINK-32339,2024-191V,2026-06-30T13:35:49.977024,15.27575355,.00010465,42.9962,236.6754,289.6852,70.3887,0,U,61640,999,9479,.28220513E-4,.515E-5,0
STARLINK-32327,2024-191W,2026-06-30T15:30:18.680256,15.27645634,.00029455,43.0020,236.4074,269.2625,90.7889,0,U,61641,999,9481,-.53327741E-3,-.14939E-3,0
STARLINK-32264,2024-191X,2026-07-01T00:00:00.998784,15.64061751,.0022633,42.9873,219.8108,72.7333,336.4590,0,U,61642,999,589,.15683E-2,.157135E-2,0
STARLINK-32337,2024-191Y,2026-06-29T20:51:33.759072,15.27576708,.0001142,42.9997,240.8975,281.3162,78.7561,0,U,61643,999,9545,-.1992686E-5,-.317E-5,0
STARLINK-32238,2024-193A,2026-07-01T00:12:42.552576,15.30192134,.0001562,53.1625,284.8423,96.0373,264.0806,0,U,61661,999,9387,.28266E-4,.478E-5,0
STARLINK-32310,2024-193B,2026-06-30T17:50:23.501184,15.31712160,.00017484,53.1611,285.3230,86.9571,273.1630,0,U,61662,999,9384,-.1105597E-4,-.709E-5,0
STARLINK-32308,2024-193C,2026-07-01T00:01:12.457632,15.34388250,.0001662,53.1612,282.6653,87.7421,272.3772,0,U,61663,999,9390,.60995E-4,.1684E-4,0
