TIANPING 3B-02          
1 61616U 24189C   26182.17930083  .00002825  00000+0  22554-3 0  9991
2 61616  97.5180 201.9756 0002320  79.7548 280.3938 15.01046649 92548
YAOGAN-43 03A           
1 61617U 24190A   26182.20834912  .00007025  00000+0  29238-3 0  9995
2 61617  34.9906 109.5386 0003657 106.2062 253.9055 15.23052283 94007
YAOGAN-43 03B           
1 61618U 24190B   26182.20957122  .00009132  00000+0  37930-3 0  9994
2 61618  34.9882 109.4232 0005976 116.2943 243.8386 15.23058430 94000
YAOGAN-43 03C           
1 61619U 24190C   26182.14950821  .00002613  00000+0  10973-3 0  9992
2 61619  34.9955 110.2694 0004783 119.3690 240.7503 15.23061903 93951
STARLINK-32302          
1 61621U 24191A   26180.85500733  .00000054  00000+0  11475-4 0  9991
2 61621  43.0009 240.7938 0001307 285.0299  75.0408 15.27574568 95449
STARLINK-32364          
1 61622U 24191B   26180.86530284 -.00001247  00000+0 -35824-4 0  9998
2 61622  42.9967 240.8697 0001583 274.4385  85.6286 15.27566845 94694
STARLINK-32331          
1 61623U 24191C   26181.53151901  .00000070  00000+0  12053-4 0  9999
2 61623  42.9979 240.7412 0000575 277.9085  82.1701 15.27569061 94751
STARLINK-32398          
1 61624U 24191D   26181.53072215  .00000212  00000+0  17240-4 0  9991
2 61624  43.0011 237.2669 0001109 281.4970  78.5757 15.27571550 94793
STARLINK-32365          
1 61625U 24191E   26181.57682252 -.00017804  00000+0 -63767-3 0  9995
2 61625  42.9994 236.7519 0001342 250.2235 109.8472 15.27647216 94804
STARLINK-32333          
1 61626U 24191F   26181.60846642  .00000001  00000+0  95713-5 0  9992
2 61626  43.0023 240.4577 0001601 274.9098  85.1570 15.27574880 94760
STARLINK-32399          
1 61627U 24191G   26181.49056132  .00000077  00000+0  12331-4 0  9994
2 61627  42.9979 230.0357 0001155 271.2231  88.8488 15.27577090 94879
STARLINK-32421          
1 61628U 24191H   26181.53714646  .00001745  00000+0  72920-4 0  9994
2 61628  43.0050 237.3114 0001497 258.1965 101.8718 15.27580697 94790
STARLINK-32403          
1 61629U 24191J   26182.18072580  .00000198  00000+0  16707-4 0  9993
2 61629  43.0006 233.5442 0000960 264.1848  95.8894 15.27576161 94894
STARLINK-32390          
1 61630U 24191K   26181.54485093 -.00000448  00000+0 -67710-5 0  9992
2 61630  43.0047 237.3724 0001376 270.4607  89.6087 15.27574406 94795
STARLINK-32348          
1 61631U 24191L   26180.88150813 -.00000103  00000+0  57906-5 0  9991
2 61631  43.0010 244.4596 0001211 268.9725  91.0988 15.27577341 94656
STARLINK-32455          
1 61632U 24191M   26181.61618322 -.00000837  00000+0 -20908-4 0  9994
2 61632  42.9989 240.5191 0001163 290.9724  69.1003 15.27571209 94761
STARLINK-32396          
1 61633U 24191N   26182.19308962 -.00001796  00000+0 -55748-4 0  9990
2 61633  43.0015 237.1047 0001589 278.1780  81.8891 15.27580640 94853
STARLINK-32355          
1 61634U 24191P   26181.61875797 -.00001317  00000+0 -38363-4 0  9995
2 61634  43.0028 240.5345 0001092 277.7631  82.3096 15.27564454 94764
STARLINK-32370          
1 61635U 24191Q   26181.63579951 -.00002843  00000+0 -93852-4 0  9990
2 61635  43.0002 236.3342 0001554 272.4933  87.5741 15.27570925 94817
STARLINK-32405          
1 61636U 24191R   26181.55721872 -.00000124  00000+0  50133-5 0  9998
2 61636  43.0019 240.9335 0001629 286.9152  73.1521 15.27575729 94752
STARLINK-32419          
1 61637U 24191S   26181.54099513 -.00000070  00000+0  69919-5 0  9990
2 61637  43.0069 237.3403 0001324 268.1458  91.9242 15.27573514 94799
STARLINK-32320          
1 61638U 24191T   26181.49568489 -.00000177  00000+0  30862-5 0  9991
2 61638  42.9985 241.3350 0001604 280.8824  79.1847 15.27570147 94743
STARLINK-32341          
1 61639U 24191U   26181.53329418 -.00000828  00000+0 -20573-4 0  9995
2 61639  43.0026 237.2832 0001352 275.1275  84.9422 15.27566998 94795
STARLINK-32339          
1 61640U 24191V   26181.56655066  .00000515  00000+0  28221-4 0  9990
2 61640  42.9962 236.6754 0001046 289.6852  70.3887 15.27575355 94792
STARLINK-32327          
1 61641U 24191W   26181.64604954 -.00014939  00000+0 -53328-3 0  9992
2 61641  43.0020 236.4074 0002945 269.2625  90.7889 15.27645634 94813
STARLINK-32264          
1 61642U 24191X   26182.00001156  .00157135  00000+0  15683-2 0  9994
2 61642  42.9873 219.8108 0022633  72.7333 336.4590 15.64061751  5892
STARLINK-32337          
1 61643U 24191Y   26180.86914073 -.00000317  00000+0 -19927-5 0  9997
2 61643  42.9997 240.8975 0001142 281.3162  78.7561 15.27576708 95453
STARLINK-32238          
1 61661U 24193A   26182.00882584  .00000478  00000+0  28266-4 0  9999
2 61661  53.1625 284.8423 0001562  96.0373 264.0806 15.30192134 93879
STARLINK-32310          
1 61662U 24193B   26181.74332756 -.00000709  00000+0 -11056-4 0  9999
2 61662  53.1611 285.3230 0001748  86.9571 273.1630 15.31712160 93842
STARLINK-32308          
1 61663U 24193C   26182.00083863  .00001684  00000+0  60995-4 0  9999
2 61663  53.1612 282.6653 0001662  87.7421 272.3772 15.34388250 93908
